{"type": "FeatureCollection", "features": [{"type": "Feature", "properties": {"norad_id": 36828, "name": "BEIDOU-2 IGSO-1 (C06)", "group": "beidou", "lat": -52.18063306906012, "lon": 52.65996612536883, "alt_km": 35625.686451045694, "timestamp": "2025-12-22T14:45:57.667619+00:00", "meta": {"OBJECT_NAME": "BEIDOU-2 IGSO-1 (C06)", "OBJECT_ID": "2010-036A", "EPOCH": "2025-12-20T21:47:26.739168", "MEAN_MOTION": 1.00282395, "ECCENTRICITY": 0.0051798, "INCLINATION": 54.2882, "RA_OF_ASC_NODE": 164.5739, "ARG_OF_PERICENTER": 215.2932, "MEAN_ANOMALY": 144.6604, "EPHEMERIS_TYPE": 0, "CLASSIFICATION_TYPE": "U", "NORAD_CAT_ID": 36828, "ELEMENT_SET_NO": 999, "REV_AT_EPOCH": 5631, "BSTAR": 0, "MEAN_MOTION_DOT": -5.5e-07, "MEAN_MOTION_DDOT": 0}, "tle": {"line1": "1 36828U 10036A   25354.90794837 -.00000055  00000+0  00000+0 0  9992", "line2": "2 36828  54.2882 164.5739 0051798 215.2932 144.6604  1.00282395 56317"}}, "geometry": {"type": "Point", "coordinates": [52.65996612536883, -52.18063306906012]}}, {"type": "Feature", "properties": {"norad_id": 37210, "name": "BEIDOU-2 G4 (C04)", "group": "beidou", "lat": 2.2121950406424586, "lon": 112.88374945152357, "alt_km": 35824.06312019702, "timestamp": "2025-12-22T14:45:57.667643+00:00", "meta": {"OBJECT_NAME": "BEIDOU-2 G4 (C04)", "OBJECT_ID": "2010-057A", "EPOCH": "2025-12-22T05:22:00.430176", "MEAN_MOTION": 1.00271926, "ECCENTRICITY": 0.00104047, "INCLINATION": 3.2067, "RA_OF_ASC_NODE": 69.9031, "ARG_OF_PERICENTER": 193.2765, "MEAN_ANOMALY": 68.4387, "EPHEMERIS_TYPE": 0, "CLASSIFICATION_TYPE": "U", "NORAD_CAT_ID": 37210, "ELEMENT_SET_NO": 999, "REV_AT_EPOCH": 5551, "BSTAR": 0, "MEAN_MOTION_DOT": -9.1e-07, "MEAN_MOTION_DDOT": 0}, "tle": {"line1": "1 37210U 10057A   25356.22361609 -.00000091  00000+0  00000+0 0  9995", "line2": "2 37210   3.2067  69.9031 0010404 193.2765  68.4387  1.00271926 55513"}}, "geometry": {"type": "Point", "coordinates": [112.88374945152357, 2.2121950406424586]}}, {"type": "Feature", "properties": {"norad_id": 37256, "name": "BEIDOU-2 IGSO-2 (C07)", "group": "beidou", "lat": 24.308838411190997, "lon": 69.94454140210757, "alt_km": 35709.08396136902, "timestamp": "2025-12-22T14:45:57.667659+00:00", "meta": {"OBJECT_NAME": "BEIDOU-2 IGSO-2 (C07)", "OBJECT_ID": "2010-068A", "EPOCH": "2025-12-21T17:07:55.147872", "MEAN_MOTION": 1.00283664, "ECCENTRICITY": 0.00485428, "INCLINATION": 47.8695, "RA_OF_ASC_NODE": 274.0391, "ARG_OF_PERICENTER": 216.3693, "MEAN_ANOMALY": 325.0635, "EPHEMERIS_TYPE": 0, "CLASSIFICATION_TYPE": "U", "NORAD_CAT_ID": 37256, "ELEMENT_SET_NO": 999, "REV_AT_EPOCH": 5501, "BSTAR": 0, "MEAN_MOTION_DOT": -1.86e-06, "MEAN_MOTION_DDOT": 0}, "tle": {"line1": "1 37256U 10068A   25355.71383273 -.00000186  00000+0  00000+0 0  9996", "line2": "2 37256  47.8695 274.0391 0048542 216.3693 325.0635  1.00283664 55018"}}, "geometry": {"type": "Point", "coordinates": [69.94454140210757, 24.308838411190997]}}, {"type": "Feature", "properties": {"norad_id": 37384, "name": "BEIDOU-2 IGSO-3 (C08)", "group": "beidou", "lat": 16.047753491193795, "lon": 50.59984691667232, "alt_km": 35932.2726260966, "timestamp": "2025-12-22T14:45:57.667672+00:00", "meta": {"OBJECT_NAME": "BEIDOU-2 IGSO-3 (C08)", "OBJECT_ID": "2011-013A", "EPOCH": "2025-12-21T13:47:18.522816", "MEAN_MOTION": 1.00268792, "ECCENTRICITY": 0.00353792, "INCLINATION": 62.1546, "RA_OF_ASC_NODE": 41.8324, "ARG_OF_PERICENTER": 187.6182, "MEAN_ANOMALY": 175.1134, "EPHEMERIS_TYPE": 0, "CLASSIFICATION_TYPE": "U", "NORAD_CAT_ID": 37384, "ELEMENT_SET_NO": 999, "REV_AT_EPOCH": 5388, "BSTAR": 0, "MEAN_MOTION_DOT": -1.61e-06, "MEAN_MOTION_DDOT": 0}, "tle": {"line1": "1 37384U 11013A   25355.57451994 -.00000161  00000+0  00000+0 0  9992", "line2": "2 37384  62.1546  41.8324 0035379 187.6182 175.1134  1.00268792 53884"}}, "geometry": {"type": "Point", "coordinates": [50.59984691667232, 16.047753491193795]}}, {"type": "Feature", "properties": {"norad_id": 37763, "name": "BEIDOU-2 IGSO-4 (C09)", "group": "beidou", "lat": -45.243278102906835, "lon": 33.184322790589896, "alt_km": 35171.58755672963, "timestamp": "2025-12-22T14:45:57.667685+00:00", "meta": {"OBJECT_NAME": "BEIDOU-2 IGSO-4 (C09)", "OBJECT_ID": "2011-038A", "EPOCH": "2025-12-21T10:06:26.864064", "MEAN_MOTION": 1.00280083, "ECCENTRICITY": 0.01491557, "INCLINATION": 54.5854, "RA_OF_ASC_NODE": 167.2693, "ARG_OF_PERICENTER": 230.0944, "MEAN_ANOMALY": 299.1265, "EPHEMERIS_TYPE": 0, "CLASSIFICATION_TYPE": "U", "NORAD_CAT_ID": 37763, "ELEMENT_SET_NO": 999, "REV_AT_EPOCH": 5286, "BSTAR": 0, "MEAN_MOTION_DOT": 5.9e-07, "MEAN_MOTION_DDOT": 0}, "tle": {"line1": "1 37763U 11038A   25355.42114426  .00000059  00000+0  00000+0 0  9995", "line2": "2 37763  54.5854 167.2693 0149155 230.0944 299.1265  1.00280083 52867"}}, "geometry": {"type": "Point", "coordinates": [33.184322790589896, -45.243278102906835]}}, {"type": "Feature", "properties": {"norad_id": 37948, "name": "BEIDOU-2 IGSO-5 (C10)", "group": "beidou", "lat": 33.902196356434516, "lon": 56.56579477001227, "alt_km": 35778.25227427289, "timestamp": "2025-12-22T14:45:57.667697+00:00", "meta": {"OBJECT_NAME": "BEIDOU-2 IGSO-5 (C10)", "OBJECT_ID": "2011-073A", "EPOCH": "2025-12-21T18:15:38.509632", "MEAN_MOTION": 1.00289356, "ECCENTRICITY": 0.01098403, "INCLINATION": 48.0035, "RA_OF_ASC_NODE": 273.7484, "ARG_OF_PERICENTER": 222.2807, "MEAN_ANOMALY": 321.9503, "EPHEMERIS_TYPE": 0, "CLASSIFICATION_TYPE": "U", "NORAD_CAT_ID": 37948, "ELEMENT_SET_NO": 999, "REV_AT_EPOCH": 5135, "BSTAR": 0, "MEAN_MOTION_DOT": -1.44e-06, "MEAN_MOTION_DDOT": 0}, "tle": {"line1": "1 37948U 11073A   25355.76086238 -.00000144  00000+0  00000+0 0  9991", "line2": "2 37948  48.0035 273.7484 0109840 222.2807 321.9503  1.00289356 51354"}}, "geometry": {"type": "Point", "coordinates": [56.56579477001227, 33.902196356434516]}}, {"type": "Feature", "properties": {"norad_id": 38091, "name": "BEIDOU-2 G5 (C05)", "group": "beidou", "lat": -2.682035789024407, "lon": 11.834670978284741, "alt_km": 35768.231083877654, "timestamp": "2025-12-22T14:45:57.667709+00:00", "meta": {"OBJECT_NAME": "BEIDOU-2 G5 (C05)", "OBJECT_ID": "2012-008A", "EPOCH": "2025-12-19T16:03:31.750272", "MEAN_MOTION": 1.00268606, "ECCENTRICITY": 0.0012969, "INCLINATION": 3.1258, "RA_OF_ASC_NODE": 70.6861, "ARG_OF_PERICENTER": 231.3522, "MEAN_ANOMALY": 86.1393, "EPHEMERIS_TYPE": 0, "CLASSIFICATION_TYPE": "U", "NORAD_CAT_ID": 38091, "ELEMENT_SET_NO": 999, "REV_AT_EPOCH": 5056, "BSTAR": 0, "MEAN_MOTION_DOT": 7.9e-07, "MEAN_MOTION_DDOT": 0}, "tle": {"line1": "1 38091U 12008A   25353.66911748  .00000079  00000+0  00000+0 0  9996", "line2": "2 38091   3.1258  70.6861 0012969 231.3522  86.1393  1.00268606 50560"}}, "geometry": {"type": "Point", "coordinates": [11.834670978284741, -2.682035789024407]}}, {"type": "Feature", "properties": {"norad_id": 38250, "name": "BEIDOU-2 M3 (C11)", "group": "beidou", "lat": 44.273266013357905, "lon": -7.928939262090558, "alt_km": 21575.79375576083, "timestamp": "2025-12-22T14:45:57.667722+00:00", "meta": {"OBJECT_NAME": "BEIDOU-2 M3 (C11)", "OBJECT_ID": "2012-018A", "EPOCH": "2025-12-21T23:49:10.133760", "MEAN_MOTION": 1.86230181, "ECCENTRICITY": 0.00240993, "INCLINATION": 55.9124, "RA_OF_ASC_NODE": 310.8468, "ARG_OF_PERICENTER": 275.3188, "MEAN_ANOMALY": 84.4018, "EPHEMERIS_TYPE": 0, "CLASSIFICATION_TYPE": "U", "NORAD_CAT_ID": 38250, "ELEMENT_SET_NO": 999, "REV_AT_EPOCH": 9264, "BSTAR": 0, "MEAN_MOTION_DOT": -6e-07, "MEAN_MOTION_DDOT": 0}, "tle": {"line1": "1 38250U 12018A   25355.99247840 -.00000060  00000+0  00000+0 0  9998", "line2": "2 38250  55.9124 310.8468 0024099 275.3188  84.4018  1.86230181 92640"}}, "geometry": {"type": "Point", "coordinates": [-7.928939262090558, 44.273266013357905]}}, {"type": "Feature", "properties": {"norad_id": 38251, "name": "BEIDOU-2 M4 (C12)", "group": "beidou", "lat": 53.74014908238333, "lon": 62.25335313928691, "alt_km": 21564.43939770919, "timestamp": "2025-12-22T14:45:57.667733+00:00", "meta": {"OBJECT_NAME": "BEIDOU-2 M4 (C12)", "OBJECT_ID": "2012-018B", "EPOCH": "2025-12-21T22:11:20.549760", "MEAN_MOTION": 1.86229896, "ECCENTRICITY": 0.00152556, "INCLINATION": 55.8135, "RA_OF_ASC_NODE": 310.0771, "ARG_OF_PERICENTER": 279.1681, "MEAN_ANOMALY": 80.6551, "EPHEMERIS_TYPE": 0, "CLASSIFICATION_TYPE": "U", "NORAD_CAT_ID": 38251, "ELEMENT_SET_NO": 999, "REV_AT_EPOCH": 9264, "BSTAR": 0, "MEAN_MOTION_DOT": -6e-07, "MEAN_MOTION_DDOT": 0}, "tle": {"line1": "1 38251U 12018B   25355.92454340 -.00000060  00000+0  00000+0 0  9997", "line2": "2 38251  55.8135 310.0771 0015255 279.1681  80.6551  1.86229896 92646"}}, "geometry": {"type": "Point", "coordinates": [62.25335313928691, 53.74014908238333]}}, {"type": "Feature", "properties": {"norad_id": 38775, "name": "BEIDOU-2 M6 (C14)", "group": "beidou", "lat": -48.027700395640174, "lon": 21.16224091711119, "alt_km": 21511.590909360715, "timestamp": "2025-12-22T14:45:57.667745+00:00", "meta": {"OBJECT_NAME": "BEIDOU-2 M6 (C14)", "OBJECT_ID": "2012-050B", "EPOCH": "2025-12-22T04:08:12.945984", "MEAN_MOTION": 1.86230889, "ECCENTRICITY": 0.00114149, "INCLINATION": 56.3862, "RA_OF_ASC_NODE": 68.7545, "ARG_OF_PERICENTER": 343.263, "MEAN_ANOMALY": 16.7493, "EPHEMERIS_TYPE": 0, "CLASSIFICATION_TYPE": "U", "NORAD_CAT_ID": 38775, "ELEMENT_SET_NO": 999, "REV_AT_EPOCH": 9001, "BSTAR": 0, "MEAN_MOTION_DOT": -3e-07, "MEAN_MOTION_DDOT": 0}, "tle": {"line1": "1 38775U 12050B   25356.17237206 -.00000030  00000+0  00000+0 0  9999", "line2": "2 38775  56.3862  68.7545 0011414 343.2630  16.7493  1.86230889 90014"}}, "geometry": {"type": "Point", "coordinates": [21.16224091711119, -48.027700395640174]}}]}